0 FENGYUN 1C DEB
1 37400U 99025EFS 13281.30634412  .00000698  00000-0  56742-3 0  1584
2 37400 098.8695 078.8251 0416645 192.5067 289.6429 13.58910115197414
0 FENGYUN 1C DEB
1 37400U 99025EFS 13282.39219387  .00000774  00000-0  62611-3 0  1592
2 37400 098.8696 079.8107 0416646 189.6936 201.6970 13.58914697197569
0 FENGYUN 1C DEB
1 37400U 99025EFS 13287.27070840  .00000808  00000-0  65120-3 0  1612
2 37400 098.8704 084.2389 0416688 177.0353 307.8780 13.58922358198226
0 FENGYUN 1C DEB
1 37400U 99025EFS 13288.65718872  .00000924  00000-0  73993-3 0  1626
2 37400 098.8708 085.4974 0416703 173.4395 250.7065 13.58925584198414
0 FENGYUN 1C DEB
1 37400U 99025EFS 13290.21600931  .00000860  00000-0  69073-3 0  1631
2 37400 098.8713 086.9126 0416782 169.4104 316.6503 13.58929438198629
0 FENGYUN 1C DEB
1 37400U 99025EFS 13292.27702756  .00000883  00000-0  70785-3 0  1645
2 37400 098.8721 088.7831 0416736 164.0716 319.4510 13.58933836198907
0 FENGYUN 1C DEB
1 37400U 99025EFS 13294.69585889  .00000967  00000-0  77273-3 0  1652
2 37400 098.8716 090.9799 0416765 157.7993 272.7752 13.58939626199236
